H1 CPF  1  DGF 2022 03 05 10  5641 larets     NONE      
H2   304206 5557    27944 2022 03 05 00 00 00 2022 03 12 00 00 00    30 1 1  0 0 0
H5  0.0650
H9
10 0 59646  28800.000000  0       -364646.499       6799873.462       1860565.013
10 0 59646  28830.000000  0       -319363.433       6857634.783       1644484.344
10 0 59646  28860.000000  0       -273519.054       6908230.413       1426720.801
10 0 59646  28890.000000  0       -227191.393       6951606.154       1207497.117
10 0 59646  28920.000000  0       -180459.201       6987715.558        987037.568
10 0 59646  28950.000000  0       -133401.831       7016519.985        765567.735
10 0 59646  28980.000000  0        -86099.128       7037988.649        543314.270
10 0 59646  29010.000000  0        -38631.301       7052098.659        320504.654
10 0 59646  29040.000000  0          8921.186       7058835.045         97366.951
10 0 59646  29070.000000  0         56477.742       7058190.774       -125870.432
10 0 59646  29100.000000  0        103957.764       7050166.758       -348978.993
10 0 59646  29130.000000  0        151280.753       7034771.849       -571730.373
10 0 59646  29160.000000  0        198366.436       7012022.825       -793896.600
10 0 59646  29190.000000  0        245134.881       6981944.373      -1015250.331
10 0 59646  29220.000000  0        291506.611       6944569.052      -1235565.092
10 0 59646  29250.000000  0        337402.724       6899937.261      -1454615.512
10 0 59646  29280.000000  0        382745.003       6848097.182      -1672177.568
10 0 59646  29310.000000  0        427456.035       6789104.730      -1888028.814
10 0 59646  29340.000000  0        471459.318       6723023.484      -2101948.616
10 0 59646  29370.000000  0        514679.379       6649924.611      -2313718.385
10 0 59646  29400.000000  0        557041.884       6569886.784      -2523121.803
10 0 59646  29430.000000  0        598473.742       6482996.090      -2729945.051
10 0 59646  29460.000000  0        638903.216       6389345.929      -2933977.031
10 0 59646  29490.000000  0        678260.028       6289036.904      -3135009.584
10 0 59646  29520.000000  0        716475.459       6182176.704      -3332837.711
10 0 59646  29550.000000  0        753482.455       6068879.979      -3527259.778
10 0 59646  29580.000000  0        789215.716       5949268.206      -3718077.727
10 0 59646  29610.000000  0        823611.802       5823469.546      -3905097.278
10 0 59646  29640.000000  0        856609.218       5691618.701      -4088128.127
10 0 59646  29670.000000  0        888148.508       5553856.754      -4266984.139
10 0 59646  29700.000000  0        918172.343       5410331.010      -4441483.536
10 0 59646  29730.000000  0        946625.600       5261194.828      -4611449.080
10 0 59646  29760.000000  0        973455.450       5106607.442      -4776708.247
10 0 59646  29790.000000  0        998611.429       4946733.786      -4937093.402
10 0 59646  29820.000000  0       1022045.519       4781744.307      -5092441.963
10 0 59646  29850.000000  0       1043712.214       4611814.771      -5242596.557
10 0 59646  29880.000000  0       1063568.590       4437126.071      -5387405.180
10 0 59646  29910.000000  0       1081574.364       4257864.024      -5526721.342
10 0 59646  29940.000000  0       1097691.958       4074219.166      -5660404.211
10 0 59646  29970.000000  0       1111886.552       3886386.545      -5788318.751
10 0 59646  30000.000000  0       1124126.140       3694565.496      -5910335.849
10 0 59646  30030.000000  0       1134381.575       3498959.429      -6026332.440
10 0 59646  30060.000000  0       1142626.616       3299775.606      -6136191.618
10 0 59646  30090.000000  0       1148837.967       3097224.914      -6239802.748
10 0 59646  30120.000000  0       1152995.317       2891521.639      -6337061.568
10 0 59646  30150.000000  0       1155081.368       2682883.233      -6427870.283
10 0 59646  30180.000000  0       1155081.866       2471530.088      -6512137.653
10 0 59646  30210.000000  0       1152985.628       2257685.299      -6589779.080
10 0 59646  30240.000000  0       1148784.561       2041574.433      -6660716.689
10 0 59646  30270.000000  0       1142473.680       1823425.285      -6724879.396
10 0 59646  30300.000000  0       1134051.118       1603467.636      -6782202.978
10 0 59646  30330.000000  0       1123518.139       1381933.012      -6832630.129
10 0 59646  30360.000000  0       1110879.137       1159054.438      -6876110.505
10 0 59646  30390.000000  0       1096141.643        935066.202      -6912600.774
10 0 59646  30420.000000  0       1079316.319        710203.603      -6942064.650
10 0 59646  30450.000000  0       1060416.950        484702.710      -6964472.931
10 0 59646  30480.000000  0       1039460.434        258800.112      -6979803.520
10 0 59646  30510.000000  0       1016466.766         32732.672      -6988041.442
10 0 59646  30540.000000  0        991459.013       -193262.721      -6989178.854
10 0 59646  30570.000000  0        964463.296       -418949.388      -6983215.049
10 0 59646  30600.000000  0        935508.759       -644091.112      -6970156.451
10 0 59646  30630.000000  0        904627.538       -868452.375      -6950016.612
10 0 59646  30660.000000  0        871854.729      -1091798.605      -6922816.194
10 0 59646  30690.000000  0        837228.346      -1313896.411      -6888582.948
10 0 59646  30720.000000  0        800789.280      -1534513.825      -6847351.685
10 0 59646  30750.000000  0        762581.253      -1753420.538      -6799164.251
10 0 59646  30780.000000  0        722650.765      -1970388.134      -6744069.481
10 0 59646  30810.000000  0        681047.049      -2185190.330      -6682123.170
10 0 59646  30840.000000  0        637822.003      -2397603.214      -6613388.010
10 0 59646  30870.000000  0        593030.131      -2607405.479      -6537933.541
10 0 59646  30900.000000  0        546728.477      -2814378.654      -6455836.074
10 0 59646  30930.000000  0        498976.554      -3018307.333      -6367178.625
10 0 59646  30960.000000  0        449836.271      -3218979.395      -6272050.829
10 0 59646  30990.000000  0        399371.861      -3416186.228      -6170548.855
10 0 59646  31020.000000  0        347649.801      -3609722.942      -6062775.317
10 0 59646  31050.000000  0        294738.731      -3799388.586      -5948839.177
10 0 59646  31080.000000  0        240709.372      -3984986.354      -5828855.642
10 0 59646  31110.000000  0        185634.431      -4166323.798      -5702946.052
10 0 59646  31140.000000  0        129588.517      -4343213.027      -5571237.768
10 0 59646  31170.000000  0         72648.042      -4515470.909      -5433864.050
10 0 59646  31200.000000  0         14891.126      -4682919.261      -5290963.927
10 0 59646  31230.000000  0        -43602.506      -4845385.043      -5142682.062
10 0 59646  31260.000000  0       -102751.624      -5002700.540      -4989168.616
10 0 59646  31290.000000  0       -162473.597      -5154703.545      -4830579.099
10 0 59646  31320.000000  0       -222684.504      -5301237.530      -4667074.218
10 0 59646  31350.000000  0       -283299.242      -5442151.817      -4498819.719
10 0 59646  31380.000000  0       -344231.637      -5577301.736      -4325986.221
10 0 59646  31410.000000  0       -405394.557      -5706548.788      -4148749.054
10 0 59646  31440.000000  0       -466700.030      -5829760.787      -3967288.077
10 0 59646  31470.000000  0       -528059.359      -5946812.007      -3781787.501
10 0 59646  31500.000000  0       -589383.242      -6057583.316      -3592435.708
10 0 59646  31530.000000  0       -650581.890      -6161962.308      -3399425.060
10 0 59646  31560.000000  0       -711565.152      -6259843.420      -3202951.707
10 0 59646  31590.000000  0       -772242.634      -6351128.054      -3003215.391
10 0 59646  31620.000000  0       -832523.826      -6435724.683      -2800419.238
10 0 59646  31650.000000  0       -892318.221      -6513548.953      -2594769.559
10 0 59646  31680.000000  0       -951535.447      -6584523.773      -2386475.629
10 0 59646  31710.000000  0      -1010085.384      -6648579.401      -2175749.479
10 0 59646  31740.000000  0      -1067878.295      -6705653.517      -1962805.671
10 0 59646  31770.000000  0      -1124824.948      -6755691.290      -1747861.083
10 0 59646  31800.000000  0      -1180836.738      -6798645.439      -1531134.681
10 0 59646  31830.000000  0      -1235825.820      -6834476.278      -1312847.294
10 0 59646  31860.000000  0      -1289705.223      -6863151.763      -1093221.383
10 0 59646  31890.000000  0      -1342388.982      -6884647.519       -872480.810
10 0 59646  31920.000000  0      -1393792.252      -6898946.866       -650850.605
10 0 59646  31950.000000  0      -1443831.436      -6906040.831       -428556.732
10 0 59646  31980.000000  0      -1492424.301      -6905928.157       -205825.856
10 0 59646  32010.000000  0      -1539490.100      -6898615.296         17114.897
10 0 59646  32040.000000  0      -1584949.685      -6884116.402        240038.175
10 0 59646  32070.000000  0      -1628725.627      -6862453.307        462716.641
10 0 59646  32100.000000  0      -1670742.328      -6833655.488        684923.206
10 0 59646  32130.000000  0      -1710926.131      -6797760.036        906431.269
10 0 59646  32160.000000  0      -1749205.430      -6754811.598       1127014.956
10 0 59646  32190.000000  0      -1785510.774      -6704862.330       1346449.350
10 0 59646  32220.000000  0      -1819774.976      -6647971.827       1564510.734
10 0 59646  32250.000000  0      -1851933.207      -6584207.048       1780976.818
10 0 59646  32280.000000  0      -1881923.100      -6513642.237       1995626.974
10 0 59646  32310.000000  0      -1909684.841      -6436358.829       2208242.465
10 0 59646  32340.000000  0      -1935161.260      -6352445.351       2418606.672
10 0 59646  32370.000000  0      -1958297.921      -6261997.317       2626505.316
99
